      2.10          N: GNSS NAV DATA                        RINEX VERSION / TYPE
fic2rin                                 03/05/2021 00:17:22 PGM / RUN BY / DATE
                                                            END OF HEADER
32 21  3  4 22  0  0.0 2.048304304481e-05 9.094947017729e-13 0.000000000000e+00
    9.200000000000e+01-2.712500000000e+01 4.644479175486e-09 3.100038613303e+00
   -1.328065991402e-06 4.659507307224e-03 8.229166269302e-06 5.153639379501e+03
    4.248000000000e+05 4.656612873077e-08 1.421404604236e-01-3.166496753693e-08
    9.575962828832e-01 2.192812500000e+02-2.422973322633e+00-7.978189466472e-09
   -1.346484657919e-10 1.000000000000e+00 2.147000000000e+03 0.000000000000e+00
    2.400000000000e+00 0.000000000000e+00 4.656612873077e-10 9.200000000000e+01
    4.176000000000e+05 4.000000000000e+00
21 21  3  4 22  0  0.0 1.005078665912e-04 3.069544618484e-12 0.000000000000e+00
    1.010000000000e+02-6.118750000000e+01 4.477329355882e-09 2.557991665866e+00
   -2.911314368248e-06 2.426653401926e-02 8.055940270424e-06 5.153718217850e+03
    4.248000000000e+05 4.023313522339e-07-2.017654013857e+00 3.911554813385e-08
    9.562109565159e-01 2.150625000000e+02-1.179502541758e+00-7.747108412447e-09
   -1.371485699313e-10 1.000000000000e+00 2.147000000000e+03 0.000000000000e+00
    2.400000000000e+00 0.000000000000e+00-1.024454832077e-08 1.010000000000e+02
    4.176000000000e+05 4.000000000000e+00
26 21  3  4 22  0  0.0 5.345651879907e-05 5.456968210638e-12 0.000000000000e+00
    1.110000000000e+02 9.009375000000e+01 5.138071164145e-09-2.125185162127e+00
    4.399567842484e-06 5.778813967481e-03 5.727633833885e-06 5.153769058228e+03
    4.248000000000e+05 3.911554813385e-08 2.202231107674e+00-1.695007085800e-07
    9.427164530214e-01 2.601875000000e+02 2.853636192030e-01-8.529998165805e-09
    2.114373786441e-10 1.000000000000e+00 2.147000000000e+03 0.000000000000e+00
    2.400000000000e+00 0.000000000000e+00 6.984919309616e-09 1.110000000000e+02
    4.176000000000e+05 4.000000000000e+00
23 21  3  4 22  0  0.0 1.181224361062e-04-5.684341886081e-13 0.000000000000e+00
    7.400000000000e+01-1.271875000000e+01 4.564833000760e-09-1.699646180857e-01
   -7.003545761108e-07 1.068285899237e-03 7.670372724533e-06 5.153641157150e+03
    4.248000000000e+05 6.705522537231e-08-9.234110692175e-01-7.636845111847e-08
    9.632043018054e-01 2.368750000000e+02 2.492796511003e+00-8.048192382375e-09
    2.700112470522e-10 1.000000000000e+00 2.147000000000e+03 0.000000000000e+00
    2.400000000000e+00 0.000000000000e+00-8.381903171539e-09 7.400000000000e+01
    4.176000000000e+05 4.000000000000e+00
25 21  3  4 22  0  0.0 9.239977225661e-05 7.503331289627e-12 0.000000000000e+00
    5.600000000000e+01 9.012500000000e+01 4.777699010341e-09-1.476457788393e+00
    4.775822162628e-06 9.888103348203e-03 4.662200808525e-06 5.153660717010e+03
    4.248000000000e+05 2.384185791016e-07 2.242760572803e+00 1.490116119385e-08
    9.617797867886e-01 2.893125000000e+02 9.470086458884e-01-8.327846888250e-09
    2.117945363783e-10 1.000000000000e+00 2.147000000000e+03 0.000000000000e+00
    2.400000000000e+00 0.000000000000e+00 5.587935447693e-09 5.600000000000e+01
    4.176000000000e+05 4.000000000000e+00
17 21  3  4 22  0  0.0 4.042382352054e-04 6.366462912410e-12 0.000000000000e+00
    9.800000000000e+01-5.106250000000e+01 4.074812589443e-09 2.301713140231e+00
   -2.715736627579e-06 1.344580645673e-02 4.800036549568e-06 5.153561586380e+03
    4.248000000000e+05 1.229345798492e-07-2.932650814232e+00-1.564621925354e-07
    9.829535993229e-01 2.922187500000e+02-1.574410613664e+00-7.818539959286e-09
   -3.314423773340e-10 1.000000000000e+00 2.147000000000e+03 0.000000000000e+00
    2.400000000000e+00 0.000000000000e+00-1.117587089539e-08 9.800000000000e+01
    4.176000000000e+05 4.000000000000e+00
18 21  3  4 22  0  0.0 3.495942801237e-04 1.136868377216e-12 0.000000000000e+00
    5.200000000000e+01-6.506250000000e+01 4.212318317109e-09 3.170146579158e-01
   -3.546476364136e-06 1.206774264574e-03 1.008808612823e-05 5.153685649872e+03
    4.248000000000e+05-5.587935447693e-09-1.923170371537e+00 1.117587089539e-08
    9.669729016627e-01 1.855937500000e+02 3.024911533513e+00-7.957474317889e-09
    2.964409193827e-11 1.000000000000e+00 2.147000000000e+03 0.000000000000e+00
    2.400000000000e+00 0.000000000000e+00-8.381903171539e-09 8.200000000000e+02
    4.176000000000e+05 4.000000000000e+00
14 21  3  4 22  0  0.0 9.953835979104e-05 7.958078640513e-13 0.000000000000e+00
    1.970000000000e+02 6.978125000000e+01 4.776984694873e-09-3.263411146973e-01
    3.632158041000e-06 4.203149583191e-04 4.997476935387e-06 5.153745702744e+03
    4.248000000000e+05 1.490116119385e-08 2.289381236752e+00 5.774199962616e-08
    9.579719514684e-01 2.814375000000e+02 2.205587745411e+00-8.359633926594e-09
    9.321816862518e-11 1.000000000000e+00 2.147000000000e+03 0.000000000000e+00
    2.400000000000e+00 0.000000000000e+00-7.916241884232e-09 4.530000000000e+02
    4.176000000000e+05 4.000000000000e+00
11 21  3  4 22  0  0.0-7.992144674063e-06 1.057287590811e-11 0.000000000000e+00
    5.400000000000e+01-6.812500000000e+01 5.687022601604e-09-5.103155096722e-01
   -3.486871719360e-06 1.531458448153e-02 6.949529051781e-06 5.154077505112e+03
    4.248000000000e+05-1.844018697739e-07-2.429044128375e+00-1.229345798492e-07
    9.143660734857e-01 2.217812500000e+02 2.083409773557e+00-8.944301137473e-09
   -8.571785620706e-12 1.000000000000e+00 2.147000000000e+03 0.000000000000e+00
    2.400000000000e+00 6.300000000000e+01-1.257285475731e-08 5.400000000000e+01
    4.176000000000e+05 4.000000000000e+00
28 21  3  4 22  0  0.0 6.069536320865e-04-5.684341886081e-12 0.000000000000e+00
    7.700000000000e+01 7.368750000000e+01 4.382325398586e-09 3.090431833622e+00
    3.803521394730e-06 1.784026529640e-02 4.529953002930e-06 5.153670404434e+03
    4.248000000000e+05 3.129243850708e-07 2.337578077898e+00 1.788139343262e-07
    9.736814431347e-01 2.956562500000e+02-1.348123092155e+00-7.911400970177e-09
    6.893144269984e-11 1.000000000000e+00 2.147000000000e+03 0.000000000000e+00
    4.850000000000e+00 0.000000000000e+00-1.117587089539e-08 7.700000000000e+01
    4.176000000000e+05 4.000000000000e+00
28 21  3  4 21 59 44.0 6.069606170058e-04-5.570655048359e-12 0.000000000000e+00
    6.000000000000e+00 7.368750000000e+01 4.382325398586e-09 3.088098128185e+00
    3.803521394730e-06 1.784026355017e-02 4.529953002930e-06 5.153670410156e+03
    4.247840000000e+05 3.129243850708e-07 2.337578206635e+00 1.788139343262e-07
    9.736814387459e-01 2.956562500000e+02-1.348123178467e+00-7.911400970177e-09
    6.893144269984e-11 1.000000000000e+00 2.147000000000e+03 0.000000000000e+00
    2.400000000000e+00 0.000000000000e+00-1.117587089539e-08 6.000000000000e+00
    4.176900000000e+05 4.000000000000e+00
 1 21  3  4 21 59 44.0 7.485682144761e-04-8.412825991400e-12 0.000000000000e+00
    0.000000000000e+00-4.906250000000e+01 3.990880521907e-09 1.735640387817e-01
   -2.440065145493e-06 1.046788808890e-02 8.856877684593e-06 5.153690153122e+03
    4.247840000000e+05-1.303851604462e-08-1.936170189283e+00 1.508742570877e-07
    9.832970368970e-01 2.188437500000e+02 8.201656199216e-01-7.968189049915e-09
    1.535778257043e-11 1.000000000000e+00 2.147000000000e+03 0.000000000000e+00
    2.400000000000e+00 0.000000000000e+00 4.656612873077e-09 0.000000000000e+00
    4.187700000000e+05 4.000000000000e+00
18 21  3  4 22 29 36.0 3.495961427689e-04 1.136868377216e-12 0.000000000000e+00
    5.300000000000e+01-6.559375000000e+01 4.241962409047e-09 5.760926967332e-01
   -3.514811396599e-06 1.206733635627e-03 1.001730561256e-05 5.153685541153e+03
    4.265760000000e+05-1.676380634308e-08-1.923184538436e+00-5.587935447693e-09
    9.669729133660e-01 1.854062500000e+02 3.024875810516e+00-7.970331996320e-09
    3.321566928024e-11 1.000000000000e+00 2.147000000000e+03 0.000000000000e+00
    2.400000000000e+00 0.000000000000e+00-8.381903171539e-09 8.210000000000e+02
    4.194000000000e+05 4.000000000000e+00
 1 21  3  4 23 59 44.0 7.485076785088e-04-8.412825991400e-12 0.000000000000e+00
    6.000000000000e+00-5.975000000000e+01 4.001595253933e-09 1.223597664897e+00
   -2.937391400337e-06 1.046833838336e-02 9.616836905479e-06 5.153692546844e+03
    4.319840000000e+05-1.322478055954e-07-1.936227421564e+00 1.396983861923e-07
    9.832970120274e-01 2.092812500000e+02 8.202993569665e-01-7.934259065166e-09
    9.286101089098e-12 1.000000000000e+00 2.147000000000e+03 0.000000000000e+00
    2.400000000000e+00 0.000000000000e+00 4.656612873077e-09 6.000000000000e+00
    4.248000000000e+05 4.000000000000e+00
 5 21  3  5  0  0  0.0-3.532227128744e-05-1.023181539495e-12 0.000000000000e+00
    3.600000000000e+01-1.687500000000e+00 4.762341227771e-09-2.266832658656e+00
   -1.005828380585e-07 5.978914443403e-03 7.415190339088e-06 5.153824222565e+03
    4.320000000000e+05-3.725290298462e-09-9.332439823864e-01-3.725290298462e-08
    9.552844158875e-01 2.341875000000e+02 8.812780937300e-01-8.081408051655e-09
    2.892977646988e-10 1.000000000000e+00 2.147000000000e+03 0.000000000000e+00
    2.400000000000e+00 0.000000000000e+00-1.117587089539e-08 3.600000000000e+01
    4.248000000000e+05 4.000000000000e+00
 3 21  3  5  0  0  0.0-9.917840361595e-05-1.034550223267e-11 0.000000000000e+00
    3.600000000000e+01-1.740625000000e+01 4.545546483114e-09 1.029763045536e-01
   -8.977949619293e-07 3.283695201389e-03 7.502734661102e-06 5.153639165878e+03
    4.320000000000e+05 2.421438694000e-08-8.975064619581e-01 3.539025783539e-08
    9.683580671090e-01 2.372812500000e+02 8.387690488176e-01-8.079622262984e-09
    2.217949529358e-10 1.000000000000e+00 2.147000000000e+03 0.000000000000e+00
    2.400000000000e+00 0.000000000000e+00 1.862645149231e-09 3.600000000000e+01
    4.248000000000e+05 4.000000000000e+00
